{"type": "FeatureCollection", "features": [ {"type": "Feature", "properties": {"norad_id": 44622, "name": "GAOFEN-10R", "group": "resource", "lat": 55.058329473670845, "lon": 119.7431536833262, "alt_km": 613.0081662349112, "timestamp": "2025-12-06T14:35:36.785211+00:00", "meta": {"OBJECT_NAME": "GAOFEN-10R", "OBJECT_ID": "2019-066A", "EPOCH": "2025-12-06T07:33:30.117024", "MEAN_MOTION": 14.82758151, "ECCENTRICITY": 0.00081989, "INCLINATION": 98.0272, "RA_OF_ASC_NODE": 287.7963, "ARG_OF_PERICENTER": 59.6333, "MEAN_ANOMALY": 300.569, "EPHEMERIS_TYPE": 0, "CLASSIFICATION_TYPE": "U", "NORAD_CAT_ID": 44622, "ELEMENT_SET_NO": 999, "REV_AT_EPOCH": 33379, "BSTAR": 0.0004342361, "MEAN_MOTION_DOT": 3.456e-05, "MEAN_MOTION_DDOT": 0}, "tle": {"line1": "1 44622U 19066A   25340.31493191  .00003456  00000+0  43424-3 0  9992", "line2": "2 44622  98.0272 287.7963 0008198  59.6333 300.5690 14.82758151333795"}}, "geometry": {"type": "Point", "coordinates": [119.7431536833262, 55.058329473670845]}}, {"type": "Feature", "properties": {"norad_id": 44804, "name": "CARTOSAT-3", "group": "resource", "lat": -22.772680404783266, "lon": -142.8840257759257, "alt_km": 514.5858597712868, "timestamp": "2025-12-06T14:35:36.785221+00:00", "meta": {"OBJECT_NAME": "CARTOSAT-3", "OBJECT_ID": "2019-081A", "EPOCH": "2025-12-06T05:48:04.591584", "MEAN_MOTION": 15.19287818, "ECCENTRICITY": 0.00139149, "INCLINATION": 97.4593, "RA_OF_ASC_NODE": 39.9072, "ARG_OF_PERICENTER": 107.426, "MEAN_ANOMALY": 252.8497, "EPHEMERIS_TYPE": 0, "CLASSIFICATION_TYPE": "U", "NORAD_CAT_ID": 44804, "ELEMENT_SET_NO": 999, "REV_AT_EPOCH": 33417, "BSTAR": 0.00039256063, "MEAN_MOTION_DOT": 8.238e-05, "MEAN_MOTION_DDOT": 0}, "tle": {"line1": "1 44804U 19081A   25340.24171981  .00008238  00000+0  39256-3 0  9994", "line2": "2 44804  97.4593  39.9072 0013914 107.4260 252.8497 15.19287818334172"}}, "geometry": {"type": "Point", "coordinates": [-142.8840257759257, -22.772680404783266]}}, {"type": "Feature", "properties": {"norad_id": 44819, "name": "GAOFEN-12 01", "group": "resource", "lat": 75.6335181040203, "lon": -45.364932602766444, "alt_km": 620.9014239921144, "timestamp": "2025-12-06T14:35:36.785231+00:00", "meta": {"OBJECT_NAME": "GAOFEN-12 01", "OBJECT_ID": "2019-082A", "EPOCH": "2025-12-06T07:45:19.206144", "MEAN_MOTION": 14.80646211, "ECCENTRICITY": 0.00011874, "INCLINATION": 97.8126, "RA_OF_ASC_NODE": 346.7726, "ARG_OF_PERICENTER": 277.9073, "MEAN_ANOMALY": 82.2005, "EPHEMERIS_TYPE": 0, "CLASSIFICATION_TYPE": "U", "NORAD_CAT_ID": 44819, "ELEMENT_SET_NO": 999, "REV_AT_EPOCH": 32555, "BSTAR": 0.00014230492, "MEAN_MOTION_DOT": 1.042e-05, "MEAN_MOTION_DDOT": 0}, "tle": {"line1": "1 44819U 19082A   25340.32313896  .00001042  00000+0  14230-3 0  9994", "line2": "2 44819  97.8126 346.7726 0001187 277.9073  82.2005 14.80646211325558"}}, "geometry": {"type": "Point", "coordinates": [-45.364932602766444, 75.6335181040203]}}, {"type": "Feature", "properties": {"norad_id": 44873, "name": "CSG-1", "group": "resource", "lat": 23.997142833302775, "lon": -14.440193864293626, "alt_km": 621.6598476280142, "timestamp": "2025-12-06T14:35:36.785242+00:00", "meta": {"OBJECT_NAME": "CSG-1", "OBJECT_ID": "2019-092A", "EPOCH": "2025-12-06T05:47:32.661600", "MEAN_MOTION": 14.82150489, "ECCENTRICITY": 0.00014585, "INCLINATION": 97.8813, "RA_OF_ASC_NODE": 161.6633, "ARG_OF_PERICENTER": 86.5604, "MEAN_ANOMALY": 273.5776, "EPHEMERIS_TYPE": 0, "CLASSIFICATION_TYPE": "U", "NORAD_CAT_ID": 44873, "ELEMENT_SET_NO": 999, "REV_AT_EPOCH": 32289, "BSTAR": 0.00016677386, "MEAN_MOTION_DOT": 1.276e-05, "MEAN_MOTION_DDOT": 0}, "tle": {"line1": "1 44873U 19092A   25340.24135025  .00001276  00000+0  16677-3 0  9998", "line2": "2 44873  97.8813 161.6633 0001458  86.5604 273.5776 14.82150489322890"}}, "geometry": {"type": "Point", "coordinates": [-14.440193864293626, 23.997142833302775]}}, {"type": "Feature", "properties": {"norad_id": 46277, "name": "NEMO-HD", "group": "resource", "lat": 64.22451871173149, "lon": -124.99011925480642, "alt_km": 438.5235169578673, "timestamp": "2025-12-06T14:35:36.785252+00:00", "meta": {"OBJECT_NAME": "NEMO-HD", "OBJECT_ID": "2020-061F", "EPOCH": "2025-12-06T06:18:02.120256", "MEAN_MOTION": 15.40131072, "ECCENTRICITY": 0.00022275, "INCLINATION": 97.222, "RA_OF_ASC_NODE": 39.4441, "ARG_OF_PERICENTER": 64.0811, "MEAN_ANOMALY": 296.0665, "EPHEMERIS_TYPE": 0, "CLASSIFICATION_TYPE": "U", "NORAD_CAT_ID": 46277, "ELEMENT_SET_NO": 999, "REV_AT_EPOCH": 29224, "BSTAR": 0.0004223404, "MEAN_MOTION_DOT": 0.00016859, "MEAN_MOTION_DDOT": 0}, "tle": {"line1": "1 46277U 20061F   25340.26252454  .00016859  00000+0  42234-3 0  9995", "line2": "2 46277  97.2220  39.4441 0002227  64.0811 296.0665 15.40131072292245"}}, "geometry": {"type": "Point", "coordinates": [-124.99011925480642, 64.22451871173149]}}, {"type": "Feature", "properties": {"norad_id": 46984, "name": "SENTINEL-6A", "group": "resource", "lat": -65.80279150928263, "lon": 76.7469864350826, "alt_km": 1338.1320533712214, "timestamp": "2025-12-06T14:35:36.785263+00:00", "meta": {"OBJECT_NAME": "SENTINEL-6A", "OBJECT_ID": "2020-086A", "EPOCH": "2025-12-06T05:42:38.263968", "MEAN_MOTION": 12.80930314, "ECCENTRICITY": 0.00077367, "INCLINATION": 66.0392, "RA_OF_ASC_NODE": 175.8127, "ARG_OF_PERICENTER": 269.213, "MEAN_ANOMALY": 90.7999, "EPHEMERIS_TYPE": 0, "CLASSIFICATION_TYPE": "U", "NORAD_CAT_ID": 46984, "ELEMENT_SET_NO": 999, "REV_AT_EPOCH": 23561, "BSTAR": 9.5367771e-05, "MEAN_MOTION_DOT": -3.9e-07, "MEAN_MOTION_DDOT": 0}, "tle": {"line1": "1 46984U 20086A   25340.23794287 -.00000039  00000+0  95368-4 0  9990", "line2": "2 46984  66.0392 175.8127 0007736 269.2130  90.7999 12.80930314235617"}}, "geometry": {"type": "Point", "coordinates": [76.7469864350826, -65.80279150928263]}}, {"type": "Feature", "properties": {"norad_id": 48079, "name": "GAOFEN-12 02", "group": "resource", "lat": 81.90907737261087, "lon": -106.242087582776, "alt_km": 617.6064061526495, "timestamp": "2025-12-06T14:35:36.785273+00:00", "meta": {"OBJECT_NAME": "GAOFEN-12 02", "OBJECT_ID": "2021-026A", "EPOCH": "2025-12-06T06:05:06.203328", "MEAN_MOTION": 14.80663393, "ECCENTRICITY": 0.00033738, "INCLINATION": 97.9848, "RA_OF_ASC_NODE": 334.2914, "ARG_OF_PERICENTER": 113.9331, "MEAN_ANOMALY": 246.2235, "EPHEMERIS_TYPE": 0, "CLASSIFICATION_TYPE": "U", "NORAD_CAT_ID": 48079, "ELEMENT_SET_NO": 999, "REV_AT_EPOCH": 25321, "BSTAR": 0.00014732071, "MEAN_MOTION_DOT": 1.079e-05, "MEAN_MOTION_DDOT": 0}, "tle": {"line1": "1 48079U 21026A   25340.25354402  .00001079  00000+0  14732-3 0  9994", "line2": "2 48079  97.9848 334.2914 0003373 113.9331 246.2235 14.80663393253218"}}, "geometry": {"type": "Point", "coordinates": [-106.242087582776, 81.90907737261087]}}, {"type": "Feature", "properties": {"norad_id": 48268, "name": "PLEIADES NEO 3", "group": "resource", "lat": 45.7075960600062, "lon": -118.685890754498, "alt_km": 619.4410667989359, "timestamp": "2025-12-06T14:35:36.785283+00:00", "meta": {"OBJECT_NAME": "PLEIADES NEO 3", "OBJECT_ID": "2021-034A", "EPOCH": "2025-12-06T04:16:04.142208", "MEAN_MOTION": 14.81672128, "ECCENTRICITY": 0.00012959, "INCLINATION": 97.8949, "RA_OF_ASC_NODE": 52.7129, "ARG_OF_PERICENTER": 92.6443, "MEAN_ANOMALY": 267.4918, "EPHEMERIS_TYPE": 0, "CLASSIFICATION_TYPE": "U", "NORAD_CAT_ID": 48268, "ELEMENT_SET_NO": 999, "REV_AT_EPOCH": 24907, "BSTAR": 2.6562361e-05, "MEAN_MOTION_DOT": 1.57e-06, "MEAN_MOTION_DDOT": 0}, "tle": {"line1": "1 48268U 21034A   25340.17782572  .00000157  00000+0  26562-4 0  9998", "line2": "2 48268  97.8949  52.7129 0001295  92.6443 267.4918 14.81672128249076"}}, "geometry": {"type": "Point", "coordinates": [-118.685890754498, 45.7075960600062]}}, {"type": "Feature", "properties": {"norad_id": 49070, "name": "PLEIADES NEO 4", "group": "resource", "lat": -45.826382311246654, "lon": 61.34390749159933, "alt_km": 631.5143517021825, "timestamp": "2025-12-06T14:35:36.785293+00:00", "meta": {"OBJECT_NAME": "PLEIADES NEO 4", "OBJECT_ID": "2021-073E", "EPOCH": "2025-12-06T06:41:55.292352", "MEAN_MOTION": 14.81672484, "ECCENTRICITY": 0.00012565, "INCLINATION": 97.8949, "RA_OF_ASC_NODE": 52.8083, "ARG_OF_PERICENTER": 96.1827, "MEAN_ANOMALY": 263.9529, "EPHEMERIS_TYPE": 0, "CLASSIFICATION_TYPE": "U", "NORAD_CAT_ID": 49070, "ELEMENT_SET_NO": 999, "REV_AT_EPOCH": 23280, "BSTAR": -1.3123123e-05, "MEAN_MOTION_DOT": -1.55e-06, "MEAN_MOTION_DDOT": 0}, "tle": {"line1": "1 49070U 21073E   25340.27911218 -.00000155  00000+0 -13123-4 0  9994", "line2": "2 49070  97.8949  52.8083 0001256  96.1827 263.9529 14.81672484232807"}}, "geometry": {"type": "Point", "coordinates": [61.34390749159933, -45.826382311246654]}}, {"type": "Feature", "properties": {"norad_id": 49260, "name": "LANDSAT 9", "group": "resource", "lat": 28.018018525205097, "lon": -126.78619916157285, "alt_km": 700.8706612512142, "timestamp": "2025-12-06T14:35:36.785303+00:00", "meta": {"OBJECT_NAME": "LANDSAT 9", "OBJECT_ID": "2021-088A", "EPOCH": "2025-12-06T04:00:43.181280", "MEAN_MOTION": 14.57119846, "ECCENTRICITY": 0.00010961, "INCLINATION": 98.2101, "RA_OF_ASC_NODE": 48.3732, "ARG_OF_PERICENTER": 93.7224, "MEAN_ANOMALY": 266.4099, "EPHEMERIS_TYPE": 0, "CLASSIFICATION_TYPE": "U", "NORAD_CAT_ID": 49260, "ELEMENT_SET_NO": 999, "REV_AT_EPOCH": 22289, "BSTAR": 0.00020149552, "MEAN_MOTION_DOT": 8.63e-06, "MEAN_MOTION_DDOT": 0}, "tle": {"line1": "1 49260U 21088A   25340.16716645  .00000863  00000+0  20150-3 0  9997", "line2": "2 49260  98.2101  48.3732 0001096  93.7224 266.4099 14.57119846222899"}}, "geometry": {"type": "Point", "coordinates": [-126.78619916157285, 28.018018525205097]}}]}